{{Infobox Planet  
| name=754 Malabar (1906 UT)
| image=
| caption=
| discovery=yes 
| physical_characteristics=yes 
| bgcolour=#FFFFC0
| discoverer=[[奥古斯特·科普夫|奥古斯特·科普夫]]
| discovery_site=[[海德堡|海德堡]]
| discovered=1906年8月22日
| mp_name=754
| alt_names=
| mp_category=[[小行星带|主带小行星]]
| epoch=2456400.5 (2013-Apr-18.0) TDB
| semimajor= 2.987542397312661AU
| perihelion=2.844361586720287AU
| aphelion=3.130723207905036AU
| eccentricity=.0479259510161822
| period=1886.120966140936天<br>5.16年
| inclination=24.56091766943501°
| asc_node=180.0708883611151°	
| arg_peri=301.497529542814°
| mean_anomaly=98.45986227705342°
 | dimensions=
 | mean_radius=43.81千米
 | rotation=11.740小时
 | spectral_type=XC
 | abs_magnitude=9.19
 | albedo=0.0485
}}
'''小行星754'''（754 Malabar (1906 UT)），是[[奥古斯特·科普夫|奥古斯特·科普夫]]于1906年8月22日在[[海德堡|海德堡]]发现的[[小行星带|主带小行星]]<ref>{{JPL Small Body|name=754}}</ref>。

== 参考资料==
{{Reflist}}

{{Minor Planet Number|[[小行星753|小行星753]]|[[小行星755|小行星755]]}}
{{beltasteroid-stub}}

[[Category:小行星带天体|Category:小行星带天体]]
[[Category:1906年发现的小行星|Category:1906年发现的小行星]]
[[Category:奥古斯特·科普夫发现的天体|Category:奥古斯特·科普夫发现的天体]]
[[Category:以地名命名的小行星|Category:以地名命名的小行星]]